zipCode,address,city,nameOnCard,creditCardNumber,cardType,creditCardMonth,state,creditCardYear,inputName
Z6405,Ap #292-6400 Vel Street,Mesa,Evangeline V. Webster,4532699580886685,visa,7,Arizona,2023,Donna Alvarado
73927,"P.O. Box 536, 433 Libero St.",Maiduguri,Aaron W. Russell,4485424326699863,visa,5,BO,2026,Dolan Petersen
9708,"7565 Nec, Avenue",Sechura,Cassandra Z. Acosta,4556688077227884,visa,4,PIU,2031,Todd Pratt
88-918,249-5824 Lectus Street,Dublin,Brynne G. Hall,4024007114495,visa,1,L,2025,Illiana Kline
58238,483-6447 Mauris St.,Braunschweig,Kai U. Berg,4916401578272184,visa,8,Niedersachsen,2024,Gary Camacho
Z1648,"P.O. Box 964, 5721 Integer Av.",Bayreuth,Dolan S. Holden,4532683643090,visa,10,BY,2027,Arthur Mcguire
44-953,Ap #662-1264 Duis Rd.,Berlin,Rebekah F. Fleming,4532588624351,visa,4,BE,2027,Louis Cobb
25556-081,Ap #728-4650 Aenean Av.,Lossiemouth,Howard T. Hoffman,4916466620972404,visa,8,MO,2025,Abel Sanders
70100,"104-919 Aliquet, Av.",Leganés,Paul Z. Perez,4929634703587,visa,5,MA,2028,Oscar Carpenter
6279,"P.O. Box 540, 4976 At Rd.",Woodstock,Calvin I. Mccray,4556468653883,visa,9,ON,2030,Alvin Byers
30037,487-3047 Cursus Road,Tokoroa,Hayfa G. Vincent,4539030057049,visa,7,NI,2023,Howard Mccullough
4608,"P.O. Box 418, 658 Massa. Street",Nova Iguaçu,Brendan F. Carlson,4485663097463583,visa,2,RJ,2031,Josiah Petty
87980,"P.O. Box 954, 2736 Fringilla Avenue",Castelló,Lani X. Stevens,4024007168186,visa,5,CV,2029,Magee Harrington
8101 VZ,Ap #931-7663 Pellentesque Rd.,Cartago,Salvador D. Albert,4716595370928471,visa,9,Cartago,2031,Philip Yang
975629,6792 Aenean Av.,Fahler,Derek E. Guy,4556658528572,visa,4,Alberta,2026,Martena Peters
930063,7838 In Ave,Malambo,Dara L. Cabrera,4556537785021,visa,1,Atlántico,2025,Cecilia Morse
21984,6524 Et Ave,Saint Louis,Hunter H. Kane,4916918092879327,visa,3,Missouri,2031,Oren Shelton
50407,5400 Vestibulum St.,Hijuelas,Stuart Q. Higgins,4383844487393,visa,7,V,2027,David Jackson
M6E 2A0,347-3204 Gravida Avenue,Vienna,Aaron Y. Allison,4532793357720423,visa,11,Wie,2022,Wilma Walls
392636,Ap #394-1774 Euismod Road,Coupar Angus,Cally A. Higgins,4716538940329663,visa,11,PE,2026,Logan Moore
6026,976-3707 Lacus. Ave,Santander,Charde U. Mason,4929855668710582,visa,4,Cantabria,2024,Audrey Kidd
387611,"Ap #286-2630 Fringilla, St.",Carson City,Lawrence C. Townsend,4929439932209,visa,9,NV,2023,Paula Fleming
176957,702-3463 Non Rd.,Galway,Alec L. Thomas,4916001426314,visa,5,C,2024,Zephania Santos
40706,4545 Cum Rd.,Upplands Väsby,Josephine M. Carter,4556074142420,visa,4,Stockholms län,2029,Aspen Patton
31330,"P.O. Box 382, 1912 Nam Road",Lagundo/Algund,Brenden T. Santana,4539560710850,visa,4,Trentino-Alto Adige,2025,Armando Talley
621590,"P.O. Box 228, 9124 Magna Av.",Gwangju,Stuart J. Lowery,4024007150414091,visa,6,Gye,2027,Keaton Dorsey
886721,878-9337 Feugiat. Road,Astore,Julie Q. Horne,4485107170489578,visa,5,GB,2027,Aileen Dotson
16282-016,2378 Enim Av.,Bilbo,Abra N. Estrada,4943458803147430,visa,5,Euskadi,2031,Hedwig Dodson
11709-19718,Ap #902-3135 Nisi St.,Millet,Kevin C. Graves,4716692073700,visa,12,Alberta,2027,Rogan Travis
91478-28886,385-8107 Euismod Rd.,Jönköping,Jamalia V. Heath,4485700943893728,visa,9,F,2027,Karly Ferrell
31087-15609,793-7949 Tellus Ave,Cusco,Allen Q. Zimmerman,4532767976709249,visa,11,Cusco,2029,Carson Ratliff
219164,6436 Nisl St.,Pelotas,Drew S. Navarro,4716761282018,visa,12,Rio Grande do Sul,2025,Phelan Dennis
49074,"2535 Lorem, Rd.",Puno,Iola I. Harding,4984844147307261,visa,2,Puno,2023,Tatyana Diaz
4223,3565 Ut Rd.,Mandi Bahauddin,Alyssa T. Pearson,4556513099330,visa,12,Punjab,2023,Blair Burnett
13-655,Ap #771-7091 Nec Avenue,Jeongeup,Ciaran O. Bryan,4556952698206416,visa,4,Jeo,2025,Baker Stevenson
50107,"P.O. Box 700, 3211 Magna. Rd.",Vienna,Alan G. Knight,4539389602878844,visa,6,Wie,2025,Nash Ware
Z5527,9387 Vitae Ave,Didim,Zeus H. Rose,4716638483059311,visa,4,Ayd,2026,Reed Mercer
N7T 0W3,2147 Feugiat Avenue,Qambar Shahdadkot,Hermione E. Norman,4556048230806,visa,4,PU,2028,Brendan Atkins
28-911,Ap #909-700 Elit Rd.,Magadan,Alexandra D. Holden,4485746199237326,visa,9,MAG,2027,Chanda Walter
26184,275-6176 Orci Rd.,Belfast,Nayda R. Snider,4716955669574,visa,6,Ulster,2027,Oleg Erickson
79455,970-5345 Pede. St.,Gumi,Yuri G. Christensen,4485435080964,visa,2,North Gyeongsang,2026,Quail Knapp
Z6666,"P.O. Box 469, 8162 Mi St.",Independencia,Leroy P. Berry,4024007155365,visa,11,RM,2025,Lillian Acosta
1603 OX,"P.O. Box 293, 8318 Praesent St.",Lanark County,Howard C. Erickson,4024007109661925,visa,9,ON,2027,Nehru Booth
8406,631-8752 Est Avenue,Radom,Darius Z. Cote,4024007131671,visa,10,MA,2031,Jonas Lane
787725,"P.O. Box 102, 4652 Rutrum. Street",Bremerhaven,Mariko V. Guthrie,4716220694118,visa,9,Bremen,2028,Berk Best
495896,"P.O. Box 523, 5302 Vitae Street",Gujranwala,Driscoll S. Solis,4556004969466053,visa,6,PU,2025,Nell Vargas
E66 0PE,870-483 Nulla St.,Owensboro,Wade B. Roberson,4929957188861,visa,7,KY,2029,Carly Baker
869137,Ap #932-7487 Vitae Rd.,Talara,Phoebe K. Salas,4485433722757,visa,4,PIU,2028,Clarke Harrison
37593-703,Ap #423-5405 Purus. Street,Lidingo,Joelle R. Summers,4539102649434,visa,10,AB,2030,Abbot Bradshaw
02519,Ap #589-741 Risus. Street,Dutse,Althea Q. Mathews,4558978530619,visa,6,JI,2028,Kylan Floyd
459208,170-6552 Nisi Road,Swabi,Thor W. Wolf,4024007196345184,visa,3,KPK,2025,Valentine Tyson
64827-964,853-1229 Donec St.,Iguala,Nathan O. Best,4532215082506091,visa,12,Guerrero,2025,Chester Adkins
72-678,Ap #835-9972 Dolor Rd.,Sevsk,Melinda J. Nunez,4485221591308927,visa,4,BRY,2024,Hermione Price
7885,Ap #362-5748 Id Rd.,Virginia Beach,Richard M. Bryan,4024007173467,visa,11,VA,2030,Alexander Hess
35874,Ap #996-4281 Torquent St.,Medellín,Cora B. Dalton,4607047780568267,visa,9,Antioquia,2029,Galena Higgins
2170,4221 Sodales Av.,Osan,Hyacinth L. Hall,4929962402181433,visa,4,Gye,2029,Haley Pierce
981160,711-747 Mauris Ave,Salisbury,Ulla S. Thompson,4539395936026943,visa,1,WI,2025,Noah Boyd
3232,6390 Elit. Street,Blind River,Urielle U. Wagner,4556491755366,visa,10,ON,2029,Jerome Sherman
40320-40733,Ap #383-5399 In Rd.,Lorient,Mona Y. Alexander,4547037407133713,visa,7,Bretagne,2025,Jason Galloway
R9Z 0M6,2875 Consectetuer St.,Fuenlabrada,Stephen M. Humphrey,4716432609771,visa,10,Madrid,2030,Judah Lane
UJ90 9VQ,Ap #191-6822 Ipsum. Rd.,Quesada,Bernard Q. Mack,4916337588969,visa,7,A,2026,Jacqueline Dodson
16798,3316 Est Street,Pucón,Kieran N. Cleveland,4485194382593413,visa,8,IX,2025,Alika Cantu
874243,669-6617 Eros. St.,Novosibirsk,Audrey G. Holmes,4024007152761796,visa,9,NVS,2025,Eagan Chavez
76848,683-5231 Consequat Avenue,Semarang,Kylee S. Nelson,4485101975521,visa,4,JT,2025,Phelan Cochran
9871,"Ap #418-7762 Nec, Av.",Okpoko,Quinn M. Rocha,4485400753223,visa,1,AN,2030,Magee Rasmussen
461614,Ap #877-4908 Mi Rd.,Zwolle,Jarrod X. Davenport,4024007177708,visa,6,Ov,2031,Moana Juarez
284788,"P.O. Box 653, 3954 Ac St.",Badalona,Jerry T. Trujillo,4024007184233,visa,9,Catalunya,2025,Prescott Mayer
7242,"P.O. Box 145, 2932 Ornare Rd.",Berlin,Gavin T. Castillo,4713832574684300,visa,8,Berlin,2025,Alvin Nguyen
66800,"P.O. Box 373, 4427 Blandit. Rd.",Galway,Wyatt E. Roberson,4485873683881,visa,5,Connacht,2030,Sage Vargas
3428,879-6542 Sollicitudin Avenue,Sungai Penuh,Dakota D. Little,4539004606882037,visa,11,JA,2030,Davis Golden
08760,Ap #581-6955 Odio St.,San Rafael,Xanthus L. Stevenson,4532463827897,visa,3,Alajuela,2031,Brendan Holder
Y20 1DZ,7398 Egestas Av.,Zamora de Hidalgo,Geoffrey S. Wheeler,4716835250035033,visa,1,Michoacán,2030,Christopher Wilder
50309,"P.O. Box 181, 6622 Vitae, St.",Chungju,Camilla I. Valencia,4024007163028714,visa,9,Chu,2025,Cole Marshall
311190,2930 Phasellus Road,Pointe-aux-Trembles,Francesca M. Malone,4929160230803100,visa,10,QC,2027,Knox Hewitt
927484,354-181 Mauris Rd.,Lacombe County,Darius U. Robinson,4929178806887,visa,8,Alberta,2029,Ocean Mccormick
KN8 6VF,"8916 Suscipit, St.",Şereflikoçhisar,Quintessa P. Howe,4532997172100956,visa,8,Ank,2027,Macy Alston
65862,"P.O. Box 464, 9761 Donec St.",Carleton,Stephen V. Atkinson,4929133475784681,visa,12,QC,2031,Maggie Vaughn
07561-33372,Ap #862-4590 Dui Road,Albacete,Alika I. Langley,4024007183134286,visa,9,Castilla - La Mancha,2026,Quinn Jensen
46056,8909 Ac St.,Flint,Hayden P. Gonzales,4532180004883335,visa,1,MI,2023,Cherokee Fuller
44961-68765,Ap #984-3264 Euismod Road,Terneuzen,Rhea E. Ramsey,4916361723015708,visa,11,Zeeland,2023,Helen Lott
95467,Ap #213-8367 Dolor St.,Tarma,Kalia M. Huber,4024007128842,visa,11,JUN,2022,Thor Berry
81565,7969 Bibendum Av.,Muzaffarnagar,Shaeleigh U. Mccall,4716706133102,visa,2,Uttar Pradesh,2024,Trevor Rodgers
559507,"P.O. Box 195, 7190 Elit. Road",Matamata,Madaline I. Dickson,4556987720628633,visa,3,NI,2026,Eric Mccray
IN10 8BB,Ap #429-6725 Lobortis Rd.,Calle Blancos,Maxine E. Hensley,4532928527488390,visa,5,SJ,2024,Eagan Valenzuela
08898,"P.O. Box 861, 4327 Orci. Street",Vienna,Zachary W. Maxwell,4916635964318,visa,11,Vienna,2029,Demetrius Olson
03442,Ap #933-2911 Enim Avenue,Nizip,Brennan J. Cervantes,4716875755493287,visa,4,Gaziantep,2030,Gisela Simon
SR81 7RJ,"9436 Eget, Rd.",Shawville,Gillian J. Nolan,4929452844444128,visa,3,Quebec,2027,Clinton Bell
53978,"8538 Elit, Road",Rinconada,Ross D. Howe,4929738302400531,visa,9,Valparaíso,2027,Brenna Porter
81099-880,Ap #817-9805 Metus Av.,Minna,Julian O. Barnett,4929947005886,visa,6,NI,2028,Haley Hawkins
616317,Ap #327-7393 Nullam Rd.,Semarang,Nasim X. Dean,4539677863626,visa,9,Central Java,2026,Quon Anthony
758771,Ap #411-1127 Libero Av.,Palma de Mallorca,Harper X. Dunlap,4916072544713401,visa,12,Illes Balears,2024,Melvin Le
0777 RE,7326 Cum Ave,Wanganui,Logan W. Oconnor,4532046180798,visa,11,NI,2031,Dennis Vang
R0F 4HH,"2798 Aliquet, Av.",Tumba,Dakota Q. Hart,4024007100605426,visa,10,Stockholms län,2027,George Valencia
79850-44036,521-2008 Eget St.,Täby,Signe J. Gallagher,4485813276664671,visa,8,AB,2029,Dara Mcclain
552552,Ap #609-2871 Metus. St.,Vienna,Randall H. Beck,4916457228263,visa,6,Vienna,2030,Lucius Crawford
58800,8454 Praesent Avenue,Blue Mountains,Sasha V. Morgan,4556526724817,visa,8,NSW,2031,Christine Rice
UF2 5ZL,Ap #276-5417 Cursus Road,Hamilton,Mechelle X. Palmer,4929491762275312,visa,10,Victoria,2022,Urielle Mullen
948013,920-741 Fermentum Rd.,Saltillo,Martin S. Rivera,4024007115933243,visa,6,Coa,2027,Omar Hamilton
1540,"1050 Dolor, Rd.",Sukkur,Sade F. Roach,4929943608865,visa,12,Punjab,2031,Roanna Gallegos
86696,8222 Integer Road,Makurdi,Kirk N. Leach,4716507699635448,visa,10,BE,2028,Vladimir Mullins
